GORIZONT 1 [-]          
1 11158U 78118A   17287.37663589 -.00000237  00000-0  00000+0 0  9995
2 11158  15.1807 264.4892 3502638 196.1174 148.9902  1.00296447 91153
GORIZONT 2 [-]          
1 11440U 79062A   17288.61102611 -.00000161  00000-0  00000-0 0  9997
2 11440  12.6882 322.2013 0007482 264.7815  97.1827  1.00239175106274
GORIZONT 3 [-]          
1 11648U 79105A   17287.22479774  .00000105  00000-0  00000-0 0  9995
2 11648  12.8028 323.4079 0011768 186.8885 355.2434  1.00297033 90716
GORIZONT 4 [-]          
1 11841U 80049A   17287.31664010 -.00000243  00000-0  00000-0 0  9992
2 11841  13.8076 327.9114 0006522 280.8805 232.7869  0.98631318202274
GORIZONT 5 [-]          
1 13092U 82020A   17288.45287969 -.00000143  00000-0  00000-0 0  9992
2 13092  14.5676 332.6985 0031990 172.4696 338.8445  0.98531606 90393
GORIZONT 6 [-]          
1 13624U 82103A   17288.12589385 -.00000292  00000-0  00000+0 0  9990
2 13624  13.4307 332.5846 0003839 257.7559 128.3412  1.00183905 89173
GORIZONT 7 [-]          
1 14160U 83066A   17286.89490352 -.00000209  00000-0  00000+0 0  9990
2 14160  14.6934 340.4440 0015329 271.9013  92.8493  0.98349328123639
GORIZONT 8 [-]          
1 14532U 83118A   17287.81178696 -.00000160  00000-0  00000-0 0  9995
2 14532  14.7652 342.0313 0023066 105.9321 245.6307  0.98270547 89372
GORIZONT 9 [-]          
1 14940U 84041A   17288.62410490 -.00000292  00000-0  00000+0 0  9990
2 14940  14.0004 340.6170 0006563 226.8793 134.5054  1.00301388 90271
GORIZONT 10 [-]         
1 15144U 84078A   17288.32685664 -.00000271  00000-0  00000-0 0  9999
2 15144  14.0368 341.5984 0005708 273.9793 212.5934  1.00258154122820
GORIZONT 11 [-]         
1 15484U 85007A   17288.33583814 -.00000213  00000-0  00000-0 0  9990
2 15484  14.0981 343.3880 0002794 262.4221 170.8134  1.00162564120874
GORIZONT 12 [-]         
1 16769U 86044A   17288.62410490 -.00000255  00000-0  00000+0 0  9995
2 16769  14.3982 348.2697 0006663 251.4945  99.9249  1.00206117115522
GORIZONT 13 [-]         
1 17083U 86090A   17288.15525403 -.00000171  00000-0  00000+0 0  9992
2 17083  15.8938 354.3111 0019650 282.7860 129.3237  0.96726487 88032
GORIZONT 14 [-]         
1 17969U 87040A   17288.46557897 -.00000141  00000-0  00000-0 0  9995
2 17969  15.3864 346.6058 0026689 137.3159 271.0325  0.97658924 88931
GORIZONT 15 [-]         
1 19017U 88028A   17286.94285727 -.00000200  00000-0  00000-0 0  9995
2 19017  15.9352 357.6201 0031668 116.2845 232.7158  0.97829780 88509
GORIZONT 16 [-]         
1 19397U 88071A   17288.06630258  .00000000  00000-0  00000+0 0  9998
2 19397  14.8378 356.5159 0012794 343.9042  81.0104  0.99982833106567
GORIZONT 17 [-]         
1 19765U 89004A   17288.17493627 -.00000243  00000-0  00000-0 0  9994
2 19765  15.1672 359.4637 0016059  89.8292 306.5723  0.99066698104204
GORIZONT 18 [-]         
1 20107U 89052A   17286.94351515 -.00000207  00000-0  00000-0 0  9991
2 20107  15.1088   0.8118 0040204 268.6788  87.8782  0.99404386102914
GORIZONT 19 [-]         
1 20263U 89081A   17288.80952309  .00000073  00000-0  00000+0 0  9990
2 20263  14.8773   0.2343 0007757 238.8086 124.4904  1.00330377102740
GORIZONT 20 [-]         
1 20659U 90054A   17288.59697182 -.00000127  00000-0  00000-0 0  9994
2 20659  15.0997   3.1595 0005718 185.3838 124.5563  1.00322617 99944
GORIZONT 21 [-]         
1 20923U 90094A   17288.56299463 -.00000375  00000-0  00000-0 0  9994
2 20923  15.0483   3.9364 0007128 217.1326 135.2131  1.00211354 98699
GORIZONT 22 [-]         
1 20953U 90102A   17286.16271472  .00000096  00000-0  00000+0 0  9999
2 20953  14.9872   4.2640 0007374 271.9082 187.8110  1.00337584 98620
GORIZONT 23 [-]         
1 21533U 91046A   17286.97036810  .00000027  00000-0  00000-0 0  9991
2 21533  15.4535   7.9921 0010307 253.3537 176.3169  0.98905728 15351
GORIZONT 24 [-]         
1 21759U 91074A   17288.36777220 -.00000030  00000-0  00000-0 0  9999
2 21759  15.4709   9.6167 0021095 194.8313 187.0458  0.98441971 93780
GORIZONT 25 [-]         
1 21922U 92017A   17288.42827141  .00000018  00000-0  00000-0 0  9999
2 21922  15.0419   9.3438 0023093  24.0099 337.9182  0.99855408 93324
GORIZONT 26 [-]         
1 22041U 92043A   17286.99563227 -.00000262  00000-0  00000+0 0  9994
2 22041  15.0702  11.0313 0034855 196.0596 157.4884  0.99246269 92045
GORIZONT 27 [-]         
1 22245U 92082A   17288.22410354 -.00000189  00000-0  00000-0 0  9992
2 22245  14.9942  11.1353 0015117 294.2148  66.9389  1.00146712 95394
GORIZONT 28 [-]         
1 22880U 93069A   17288.34077153  .00000060  00000-0  00000-0 0  9999
2 22880  14.8485  14.5565 0028193  90.5351 270.7788  0.99649513 87576
GORIZONT 29 [-]         
1 22907U 93072A   17288.59841104 -.00000356  00000-0  00000+0 0  9993
2 22907  14.7933  14.2429 0014905 274.3580  85.9644  1.00154306 87493
GORIZONT 30 [-]         
1 23108U 94030A   17288.48105108  .00000005  00000-0  00000+0 0  9997
2 23108  14.7304  15.2442 0006596 228.4639 133.1618  1.00269246 85739
GORIZONT 31 [-]         
1 23775U 96005A   17288.53000876 -.00000186  00000-0  00000+0 0  9994
2 23775  14.1739  20.8397 0020724 170.1900 188.1749  0.99901838 79419
GORIZONT 32 [-]         
1 23880U 96034A   17288.49646188 -.00000319  00000-0  00000+0 0  9998
2 23880  14.0779  21.4684 0012423 275.6173   6.5838  1.00148736 78329
GORIZONT 33 [-]         
1 26372U 00029A   17288.85462771  .00000112  00000-0  00000+0 0  9990
2 26372  11.9852  31.1139 0003238 223.7715 118.7792  1.00173000 63667
